      2.10          N: GNSS NAV DATA                        RINEX VERSION / TYPE
fic2rin                                 12/26/2021 00:17:20 PGM / RUN BY / DATE
                                                            END OF HEADER
13 21 12 26  0  0  0.0 2.351286821067e-04 5.798028723802e-12 0.000000000000e+00
    1.800000000000e+01-3.490625000000e+01 4.255534402946e-09 8.399506038627e-01
   -1.901760697365e-06 5.781468236819e-03 1.038983464241e-05 5.153680326462e+03
    0.000000000000e+00-5.960464477539e-08 1.183225359594e+00 1.862645149231e-08
    9.681459308212e-01 1.831562500000e+02 9.758048789671e-01-7.914615389785e-09
    6.250260348431e-11 1.000000000000e+00 2.190000000000e+03 0.000000000000e+00
    2.400000000000e+00 0.000000000000e+00-1.117587089539e-08 1.800000000000e+01
   -7.200000000000e+03 4.000000000000e+00
 7 21 12 26  0  0  0.0 2.950252965093e-04 4.206412995700e-12 0.000000000000e+00
    1.900000000000e+01 3.575000000000e+01 4.818772149774e-09-1.493711062399e+00
    1.890584826469e-06 1.536840340123e-02 7.728114724159e-06 5.153708509445e+03
    0.000000000000e+00 3.110617399216e-07 2.103469841688e+00-2.421438694000e-08
    9.508299429808e-01 2.194687500000e+02-2.297949287543e+00-8.043906489564e-09
    3.200133298397e-10 1.000000000000e+00 2.190000000000e+03 0.000000000000e+00
    2.400000000000e+00 0.000000000000e+00-1.117587089539e-08 1.900000000000e+01
   -7.200000000000e+03 4.000000000000e+00
12 21 12 26  0  0  0.0-1.461901701987e-04-5.570655048359e-12 0.000000000000e+00
    7.000000000000e+01 1.143750000000e+01 4.598405827775e-09-2.166210364842e+00
    6.165355443954e-07 8.490338688716e-03 6.547197699547e-06 5.153626459122e+03
    0.000000000000e+00 1.154839992523e-07-3.067688608424e+00 3.166496753693e-08
    9.713222756087e-01 2.581875000000e+02 1.232789740950e+00-7.952116951876e-09
   -1.696499237431e-10 1.000000000000e+00 2.190000000000e+03 0.000000000000e+00
    2.400000000000e+00 0.000000000000e+00-1.257285475731e-08 7.000000000000e+01
   -7.200000000000e+03 4.000000000000e+00
10 21 12 26  0  0  0.0-2.775019966066e-04-9.208633855451e-12 0.000000000000e+00
    4.900000000000e+01-6.090625000000e+01 4.325894476583e-09-2.829791559217e+00
   -3.177672624588e-06 7.361102267168e-03 5.293637514114e-06 5.153677547455e+03
    0.000000000000e+00-2.793967723846e-08-3.977674257527e-06-3.539025783539e-08
    9.720656530419e-01 2.844375000000e+02-2.551050154690e+00-8.029620180196e-09
    2.285809498855e-11 1.000000000000e+00 2.190000000000e+03 0.000000000000e+00
    2.400000000000e+00 0.000000000000e+00 2.328306436539e-09 4.900000000000e+01
   -7.200000000000e+03 4.000000000000e+00
 8 21 12 26  0  0  0.0-4.951702430844e-05-1.477928890381e-12 0.000000000000e+00
    5.700000000000e+01 1.996875000000e+01 4.412326648258e-09 1.476673507367e+00
    1.328065991402e-06 7.006030762568e-03 8.590519428253e-06 5.153700302124e+03
    0.000000000000e+00 7.450580596924e-09-2.111754074668e+00 8.009374141693e-08
    9.652735643185e-01 2.146875000000e+02 6.885307472693e-02-8.044977962767e-09
   -3.392998474863e-10 1.000000000000e+00 2.190000000000e+03 0.000000000000e+00
    2.400000000000e+00 0.000000000000e+00 5.122274160385e-09 5.700000000000e+01
   -7.200000000000e+03 4.000000000000e+00
 6 21 12 26  0  0  0.0 1.526526175439e-04 1.034550223267e-11 0.000000000000e+00
    6.500000000000e+01 3.853125000000e+01 3.985880313628e-09-4.499402222277e-01
    2.022832632065e-06 2.560733351856e-03 5.956739187241e-06 5.153637287140e+03
    0.000000000000e+00-8.195638656616e-08-1.040838137075e+00 7.450580596924e-09
    9.857906553720e-01 2.802500000000e+02-1.022762436858e+00-7.957474317889e-09
    1.221479450951e-10 1.000000000000e+00 2.190000000000e+03 0.000000000000e+00
    2.400000000000e+00 0.000000000000e+00 4.190951585770e-09 6.500000000000e+01
   -7.200000000000e+03 4.000000000000e+00
 4 21 12 26  0  0  0.0-1.976881176233e-04 1.477928890381e-12 0.000000000000e+00
    1.440000000000e+02-5.093750000000e+01 4.405897809043e-09 1.002758171737e+00
   -2.583488821983e-06 1.603024313226e-03 9.605661034584e-06 5.153669235229e+03
    0.000000000000e+00-1.117587089539e-08 1.083721621721e+00 6.519258022308e-08
    9.607089453838e-01 1.943750000000e+02-3.125643079512e+00-7.928187383685e-09
    9.464679956196e-11 1.000000000000e+00 2.190000000000e+03 0.000000000000e+00
    2.400000000000e+00 0.000000000000e+00-4.190951585770e-09 9.120000000000e+02
   -7.200000000000e+03 4.000000000000e+00
29 21 12 26  0  0  0.0-4.588607698679e-04-5.002220859751e-12 0.000000000000e+00
    4.500000000000e+01 3.506250000000e+01 3.896233722345e-09 1.487797401854e+00
    1.721084117889e-06 1.754363416694e-03 9.447336196899e-06 5.153777774811e+03
    0.000000000000e+00 9.313225746155e-09-2.017699988983e+00-5.215406417847e-08
    9.822585523143e-01 2.044375000000e+02 2.314027949512e+00-7.781038397196e-09
   -2.621537768999e-10 1.000000000000e+00 2.190000000000e+03 0.000000000000e+00
    3.400000000000e+00 0.000000000000e+00-1.024454832077e-08 4.500000000000e+01
   -7.200000000000e+03 4.000000000000e+00
15 21 12 26  0  0  0.0-9.642308577895e-05 2.842170943040e-12 0.000000000000e+00
    5.400000000000e+01-5.887500000000e+01 5.163072205539e-09 4.570559874279e-01
   -2.961605787277e-06 1.392241020221e-02 9.799376130104e-06 5.153721002579e+03
    0.000000000000e+00-2.067536115646e-07 9.264594306169e-01 1.043081283569e-07
    9.295817513026e-01 1.763437500000e+02 1.065730715162e+00-8.531426796742e-09
   -6.964575816824e-11 1.000000000000e+00 2.190000000000e+03 0.000000000000e+00
    2.400000000000e+00 0.000000000000e+00-1.071020960808e-08 5.400000000000e+01
   -7.200000000000e+03 4.000000000000e+00
31 21 12 26  0  0  0.0-1.568160951138e-04-1.818989403546e-12 0.000000000000e+00
    6.200000000000e+01 2.890625000000e+01 4.816272045634e-09-1.943087866598e+00
    1.173466444016e-06 1.045799208805e-02 8.510425686836e-06 5.153663166046e+03
    0.000000000000e+00 1.210719347000e-07 2.121358924760e+00-1.639127731323e-07
    9.550893635571e-01 2.106250000000e+02 3.566128601170e-01-8.095337203288e-09
    4.210889686172e-10 1.000000000000e+00 2.190000000000e+03 0.000000000000e+00
    2.400000000000e+00 0.000000000000e+00-1.303851604462e-08 6.200000000000e+01
   -7.200000000000e+03 4.000000000000e+00
30 21 12 26  0  0  0.0-5.020657554269e-04-2.842170943040e-12 0.000000000000e+00
    4.500000000000e+01 3.912500000000e+01 5.204502502705e-09-1.499070045850e+00
    1.853331923485e-06 5.366936209612e-03 7.813796401024e-06 5.153599250793e+03
    0.000000000000e+00 3.166496753693e-08 2.117404266592e+00-5.774199962616e-08
    9.360113684248e-01 2.132500000000e+02-2.752224972829e+00-8.316774998490e-09
    2.985838657879e-10 1.000000000000e+00 2.190000000000e+03 0.000000000000e+00
    2.400000000000e+00 0.000000000000e+00 3.725290298462e-09 4.500000000000e+01
   -7.200000000000e+03 4.000000000000e+00
32 21 12 26  0  0  0.0-4.050601273775e-05-5.684341886081e-12 0.000000000000e+00
    9.600000000000e+01-6.350000000000e+01 4.399826127562e-09 2.091082399987e+00
   -3.153458237648e-06 5.321880453266e-03 1.018680632114e-05 5.153761688232e+03
    0.000000000000e+00-1.154839992523e-07 1.042142133974e+00-9.499490261078e-08
    9.575778471895e-01 1.791250000000e+02-2.382868223706e+00-7.979260939675e-09
    9.000374901741e-11 1.000000000000e+00 2.190000000000e+03 0.000000000000e+00
    2.400000000000e+00 0.000000000000e+00 4.656612873077e-10 9.600000000000e+01
   -7.200000000000e+03 4.000000000000e+00
23 21 12 26  0  0  0.0 1.794053241611e-05-4.092726157978e-12 0.000000000000e+00
    5.800000000000e+01-5.946875000000e+01 4.448399579412e-09-1.451785516991e+00
   -3.041699528694e-06 1.935201114975e-03 5.057081580162e-06 5.153692651749e+03
    0.000000000000e+00-1.098960638046e-07-2.458541502979e-02 1.676380634308e-08
    9.671082596209e-01 2.865937500000e+02 2.873043983025e+00-8.163197172786e-09
    1.428630936784e-12 1.000000000000e+00 2.190000000000e+03 0.000000000000e+00
    2.400000000000e+00 0.000000000000e+00-8.381903171539e-09 5.800000000000e+01
   -7.200000000000e+03 4.000000000000e+00
20 21 12 26  0  0  0.0 5.174726247787e-04-2.273736754432e-13 0.000000000000e+00
    3.200000000000e+01-4.587500000000e+01 5.184501669590e-09 2.525220328877e-01
   -2.356246113777e-06 5.374379688874e-03 4.248693585396e-06 5.153709514618e+03
    0.000000000000e+00 1.192092895508e-07-1.499217772781e-01-3.352761268616e-08
    9.413775362673e-01 2.882187500000e+02 3.078262189702e+00-8.636074012861e-09
    1.785788670980e-12 1.000000000000e+00 2.190000000000e+03 0.000000000000e+00
    2.400000000000e+00 0.000000000000e+00-8.381903171539e-09 3.200000000000e+01
   -7.200000000000e+03 4.000000000000e+00
24 21 12 26  0  0  0.0 2.761459909379e-04 1.250555214938e-12 0.000000000000e+00
    4.100000000000e+01 3.593750000000e+01 5.392010313158e-09-5.239155919645e-01
    2.026557922363e-06 1.221486774739e-02 8.320435881615e-06 5.153697368622e+03
    0.000000000000e+00 7.450580596924e-08 2.021594927909e+00 2.048909664154e-07
    9.342471316459e-01 2.072187500000e+02 7.942151136074e-01-8.601786870378e-09
    3.103700710164e-10 1.000000000000e+00 2.190000000000e+03 0.000000000000e+00
    2.400000000000e+00 0.000000000000e+00 2.328306436539e-09 4.100000000000e+01
   -7.200000000000e+03 4.000000000000e+00
16 21 12 26  0  0  0.0-4.460127092898e-04-5.798028723802e-12 0.000000000000e+00
    1.110000000000e+02 1.337500000000e+01 4.561975738887e-09 2.256529926420e+00
    5.736947059631e-07 1.253615634050e-02 6.835907697678e-06 5.153575613022e+03
    0.000000000000e+00-1.974403858185e-07-3.049049768133e+00-1.732259988785e-07
    9.712947200838e-01 2.558437500000e+02 6.906052792133e-01-7.968903365383e-09
   -2.285809498855e-10 1.000000000000e+00 2.190000000000e+03 0.000000000000e+00
    2.400000000000e+00 0.000000000000e+00-1.024454832077e-08 1.110000000000e+02
   -7.200000000000e+03 4.000000000000e+00
